STARLINK-36984          
1 68168U 26050B   26087.21147821  .00208413  00000+0  10312-2 0  9997
2 68168  53.1599 189.0093 0000892  51.2029 308.9073 15.80935021  3402
STARLINK-37077          
1 68169U 26050C   26087.21072967  .00241276  00000+0  11885-2 0  9996
2 68169  53.1599 189.0041 0001406  43.7972 316.3162 15.80938179  3400
STARLINK-37003          
1 68170U 26050D   26087.27319757  .00213994  00000+0  10562-2 0  9992
2 68170  53.1600 188.6822 0001124  73.4308 286.6838 15.80972653  3412
STARLINK-37034          
1 68171U 26050E   26087.27244746  .00209706  00000+0  10375-2 0  9996
2 68171  53.1599 188.6769 0000967  61.7241 298.3879 15.80933852  3413
STARLINK-37031          
1 68172U 26050F   26087.27169893  .00246962  00000+0  12134-2 0  9996
2 68172  53.1597 188.6719 0001054  71.6320 288.4818 15.80979064  3411
STARLINK-37076          
1 68173U 26050G   26087.27094925  .00232518  00000+0  11449-2 0  9990
2 68173  53.1597 188.6669 0001061  91.9524 268.1620 15.80972643  3417
STARLINK-37078          
1 68174U 26050H   26087.27019615  .00256084  00000+0  12583-2 0  9998
2 68174  53.1597 188.6617 0000947  97.7784 262.3346 15.80952113  3416
STARLINK-36886          
1 68175U 26050J   26087.26944831  .00218620  00000+0  10806-2 0  9995
2 68175  53.1596 188.6563 0000948  62.5354 297.5766 15.80927826  3419
STARLINK-36905          
1 68176U 26050K   26087.26869685  .00244239  00000+0  11999-2 0  9998
2 68176  53.1596 188.6520 0001088  74.7351 285.3792 15.80989032  3412
STARLINK-36668          
1 68177U 26050L   26087.26794648  .00248746  00000+0  12213-2 0  9992
2 68177  53.1596 188.6464 0000922  21.8644 338.2418 15.80989110  3414
STARLINK-36677          
1 68178U 26050M   26087.26719622  .00238715  00000+0  11736-2 0  9996
2 68178  53.1596 188.6407 0000770  55.9884 304.1212 15.80988084  3410
STARLINK-37052          
1 68179U 26050N   26087.26644644  .00279517  00000+0  13668-2 0  9999
2 68179  53.1592 188.6365 0000984  89.2795 270.8341 15.80992997  3418
